<?xml version="1.0" encoding="UTF-8"?>
<gpx version="1.1" creator="Maplight sample" xmlns="http://www.topografix.com/GPX/1/1">
 <trk>
  <name>Kalemegdan - Knez Mihailova - Skadarlija</name>
  <trkseg>
    <trkpt lat="44.823002" lon="20.450814"><time>2026-09-10T00:26:40Z</time></trkpt>
    <trkpt lat="44.822930" lon="20.450839"><time>2026-09-10T00:26:46Z</time></trkpt>
    <trkpt lat="44.822885" lon="20.450852"><time>2026-09-10T00:26:49Z</time></trkpt>
    <trkpt lat="44.822830" lon="20.450870"><time>2026-09-10T00:26:54Z</time></trkpt>
    <trkpt lat="44.822822" lon="20.450877"><time>2026-09-10T00:26:55Z</time></trkpt>
    <trkpt lat="44.822675" lon="20.451014"><time>2026-09-10T00:27:09Z</time></trkpt>
    <trkpt lat="44.822640" lon="20.451054"><time>2026-09-10T00:27:13Z</time></trkpt>
    <trkpt lat="44.822548" lon="20.451160"><time>2026-09-10T00:27:23Z</time></trkpt>
    <trkpt lat="44.822457" lon="20.451266"><time>2026-09-10T00:27:32Z</time></trkpt>
    <trkpt lat="44.822365" lon="20.451373"><time>2026-09-10T00:27:42Z</time></trkpt>
    <trkpt lat="44.822273" lon="20.451479"><time>2026-09-10T00:27:52Z</time></trkpt>
    <trkpt lat="44.822256" lon="20.451453"><time>2026-09-10T00:27:54Z</time></trkpt>
    <trkpt lat="44.822233" lon="20.451422"><time>2026-09-10T00:27:57Z</time></trkpt>
    <trkpt lat="44.822228" lon="20.451415"><time>2026-09-10T00:27:57Z</time></trkpt>
    <trkpt lat="44.822180" lon="20.451366"><time>2026-09-10T00:28:02Z</time></trkpt>
    <trkpt lat="44.822074" lon="20.451263"><time>2026-09-10T00:28:13Z</time></trkpt>
    <trkpt lat="44.821967" lon="20.451160"><time>2026-09-10T00:28:23Z</time></trkpt>
    <trkpt lat="44.821861" lon="20.451057"><time>2026-09-10T00:28:34Z</time></trkpt>
    <trkpt lat="44.821785" lon="20.451034"><time>2026-09-10T00:28:40Z</time></trkpt>
    <trkpt lat="44.821610" lon="20.450981"><time>2026-09-10T00:28:55Z</time></trkpt>
    <trkpt lat="44.821581" lon="20.450980"><time>2026-09-10T00:28:57Z</time></trkpt>
    <trkpt lat="44.821486" lon="20.451000"><time>2026-09-10T00:29:05Z</time></trkpt>
    <trkpt lat="44.821352" lon="20.451230"><time>2026-09-10T00:29:22Z</time></trkpt>
    <trkpt lat="44.821265" lon="20.451380"><time>2026-09-10T00:29:34Z</time></trkpt>
    <trkpt lat="44.821131" lon="20.451608"><time>2026-09-10T00:29:51Z</time></trkpt>
    <trkpt lat="44.821091" lon="20.451670"><time>2026-09-10T00:29:56Z</time></trkpt>
    <trkpt lat="44.820980" lon="20.451680"><time>2026-09-10T00:30:05Z</time></trkpt>
    <trkpt lat="44.820911" lon="20.451799"><time>2026-09-10T00:30:14Z</time></trkpt>
    <trkpt lat="44.820890" lon="20.451835"><time>2026-09-10T00:30:17Z</time></trkpt>
    <trkpt lat="44.820879" lon="20.451854"><time>2026-09-10T00:30:18Z</time></trkpt>
    <trkpt lat="44.820803" lon="20.451985"><time>2026-09-10T00:30:28Z</time></trkpt>
    <trkpt lat="44.820728" lon="20.452115"><time>2026-09-10T00:30:38Z</time></trkpt>
    <trkpt lat="44.820646" lon="20.452255"><time>2026-09-10T00:30:48Z</time></trkpt>
    <trkpt lat="44.820615" lon="20.452308"><time>2026-09-10T00:30:52Z</time></trkpt>
    <trkpt lat="44.820535" lon="20.452445"><time>2026-09-10T00:31:03Z</time></trkpt>
    <trkpt lat="44.820455" lon="20.452583"><time>2026-09-10T00:31:13Z</time></trkpt>
    <trkpt lat="44.820479" lon="20.452610"><time>2026-09-10T00:31:16Z</time></trkpt>
    <trkpt lat="44.820520" lon="20.452656"><time>2026-09-10T00:31:20Z</time></trkpt>
    <trkpt lat="44.820479" lon="20.452610"><time>2026-09-10T00:31:24Z</time></trkpt>
    <trkpt lat="44.820455" lon="20.452583"><time>2026-09-10T00:31:27Z</time></trkpt>
    <trkpt lat="44.820368" lon="20.452727"><time>2026-09-10T00:31:38Z</time></trkpt>
    <trkpt lat="44.820280" lon="20.452872"><time>2026-09-10T00:31:49Z</time></trkpt>
    <trkpt lat="44.820193" lon="20.453016"><time>2026-09-10T00:32:00Z</time></trkpt>
    <trkpt lat="44.820143" lon="20.453108"><time>2026-09-10T00:32:07Z</time></trkpt>
    <trkpt lat="44.820134" lon="20.453122"><time>2026-09-10T00:32:08Z</time></trkpt>
    <trkpt lat="44.820114" lon="20.453157"><time>2026-09-10T00:32:10Z</time></trkpt>
    <trkpt lat="44.820080" lon="20.453214"><time>2026-09-10T00:32:15Z</time></trkpt>
    <trkpt lat="44.820059" lon="20.453246"><time>2026-09-10T00:32:17Z</time></trkpt>
    <trkpt lat="44.820048" lon="20.453264"><time>2026-09-10T00:32:19Z</time></trkpt>
    <trkpt lat="44.820025" lon="20.453299"><time>2026-09-10T00:32:21Z</time></trkpt>
    <trkpt lat="44.819946" lon="20.453419"><time>2026-09-10T00:32:31Z</time></trkpt>
    <trkpt lat="44.819866" lon="20.453539"><time>2026-09-10T00:32:41Z</time></trkpt>
    <trkpt lat="44.819786" lon="20.453657"><time>2026-09-10T00:32:50Z</time></trkpt>
    <trkpt lat="44.819705" lon="20.453774"><time>2026-09-10T00:33:00Z</time></trkpt>
    <trkpt lat="44.819625" lon="20.453892"><time>2026-09-10T00:33:09Z</time></trkpt>
    <trkpt lat="44.819540" lon="20.454027"><time>2026-09-10T00:33:20Z</time></trkpt>
    <trkpt lat="44.819455" lon="20.454163"><time>2026-09-10T00:33:30Z</time></trkpt>
    <trkpt lat="44.819370" lon="20.454298"><time>2026-09-10T00:33:41Z</time></trkpt>
    <trkpt lat="44.819285" lon="20.454433"><time>2026-09-10T00:33:51Z</time></trkpt>
    <trkpt lat="44.819195" lon="20.454584"><time>2026-09-10T00:34:03Z</time></trkpt>
    <trkpt lat="44.819106" lon="20.454735"><time>2026-09-10T00:34:14Z</time></trkpt>
    <trkpt lat="44.819023" lon="20.454881"><time>2026-09-10T00:34:25Z</time></trkpt>
    <trkpt lat="44.818939" lon="20.455028"><time>2026-09-10T00:34:36Z</time></trkpt>
    <trkpt lat="44.818870" lon="20.455138"><time>2026-09-10T00:34:45Z</time></trkpt>
    <trkpt lat="44.818797" lon="20.455263"><time>2026-09-10T00:34:54Z</time></trkpt>
    <trkpt lat="44.818724" lon="20.455388"><time>2026-09-10T00:35:04Z</time></trkpt>
    <trkpt lat="44.818652" lon="20.455514"><time>2026-09-10T00:35:13Z</time></trkpt>
    <trkpt lat="44.818579" lon="20.455639"><time>2026-09-10T00:35:23Z</time></trkpt>
    <trkpt lat="44.818506" lon="20.455764"><time>2026-09-10T00:35:32Z</time></trkpt>
    <trkpt lat="44.818413" lon="20.455927"><time>2026-09-10T00:35:44Z</time></trkpt>
    <trkpt lat="44.818330" lon="20.456065"><time>2026-09-10T00:35:55Z</time></trkpt>
    <trkpt lat="44.818247" lon="20.456203"><time>2026-09-10T00:36:05Z</time></trkpt>
    <trkpt lat="44.818165" lon="20.456341"><time>2026-09-10T00:36:16Z</time></trkpt>
    <trkpt lat="44.818082" lon="20.456479"><time>2026-09-10T00:36:26Z</time></trkpt>
    <trkpt lat="44.818045" lon="20.456654"><time>2026-09-10T00:36:37Z</time></trkpt>
    <trkpt lat="44.817968" lon="20.456809"><time>2026-09-10T00:36:48Z</time></trkpt>
    <trkpt lat="44.817892" lon="20.456964"><time>2026-09-10T00:36:59Z</time></trkpt>
    <trkpt lat="44.817842" lon="20.457094"><time>2026-09-10T00:37:08Z</time></trkpt>
    <trkpt lat="44.817790" lon="20.457226"><time>2026-09-10T00:37:16Z</time></trkpt>
    <trkpt lat="44.817752" lon="20.457375"><time>2026-09-10T00:37:26Z</time></trkpt>
    <trkpt lat="44.817715" lon="20.457525"><time>2026-09-10T00:37:35Z</time></trkpt>
    <trkpt lat="44.817677" lon="20.457674"><time>2026-09-10T00:37:44Z</time></trkpt>
    <trkpt lat="44.817638" lon="20.457840"><time>2026-09-10T00:37:54Z</time></trkpt>
    <trkpt lat="44.817600" lon="20.458006"><time>2026-09-10T00:38:05Z</time></trkpt>
    <trkpt lat="44.817561" lon="20.458172"><time>2026-09-10T00:38:15Z</time></trkpt>
    <trkpt lat="44.817543" lon="20.458235"><time>2026-09-10T00:38:19Z</time></trkpt>
    <trkpt lat="44.817514" lon="20.458295"><time>2026-09-10T00:38:23Z</time></trkpt>
    <trkpt lat="44.817415" lon="20.458413"><time>2026-09-10T00:38:34Z</time></trkpt>
    <trkpt lat="44.817317" lon="20.458530"><time>2026-09-10T00:38:44Z</time></trkpt>
    <trkpt lat="44.817218" lon="20.458648"><time>2026-09-10T00:38:55Z</time></trkpt>
    <trkpt lat="44.817120" lon="20.458765"><time>2026-09-10T00:39:06Z</time></trkpt>
    <trkpt lat="44.817021" lon="20.458883"><time>2026-09-10T00:39:16Z</time></trkpt>
    <trkpt lat="44.816925" lon="20.458998"><time>2026-09-10T00:39:26Z</time></trkpt>
    <trkpt lat="44.816830" lon="20.459112"><time>2026-09-10T00:39:37Z</time></trkpt>
    <trkpt lat="44.816722" lon="20.459245"><time>2026-09-10T00:39:48Z</time></trkpt>
    <trkpt lat="44.816615" lon="20.459378"><time>2026-09-10T00:40:00Z</time></trkpt>
    <trkpt lat="44.816507" lon="20.459511"><time>2026-09-10T00:40:12Z</time></trkpt>
    <trkpt lat="44.816406" lon="20.459635"><time>2026-09-10T00:40:23Z</time></trkpt>
    <trkpt lat="44.816311" lon="20.459745"><time>2026-09-10T00:40:33Z</time></trkpt>
    <trkpt lat="44.816215" lon="20.459855"><time>2026-09-10T00:40:43Z</time></trkpt>
    <trkpt lat="44.816120" lon="20.459965"><time>2026-09-10T00:40:53Z</time></trkpt>
    <trkpt lat="44.816228" lon="20.460132"><time>2026-09-10T00:41:07Z</time></trkpt>
    <trkpt lat="44.816337" lon="20.460298"><time>2026-09-10T00:41:20Z</time></trkpt>
    <trkpt lat="44.816457" lon="20.460343"><time>2026-09-10T00:41:30Z</time></trkpt>
    <trkpt lat="44.816515" lon="20.460385"><time>2026-09-10T00:41:35Z</time></trkpt>
    <trkpt lat="44.816535" lon="20.460405"><time>2026-09-10T00:41:37Z</time></trkpt>
    <trkpt lat="44.816545" lon="20.460413"><time>2026-09-10T00:41:38Z</time></trkpt>
    <trkpt lat="44.816583" lon="20.460475"><time>2026-09-10T00:41:43Z</time></trkpt>
    <trkpt lat="44.816606" lon="20.460514"><time>2026-09-10T00:41:46Z</time></trkpt>
    <trkpt lat="44.816620" lon="20.460537"><time>2026-09-10T00:41:48Z</time></trkpt>
    <trkpt lat="44.816587" lon="20.460579"><time>2026-09-10T00:41:51Z</time></trkpt>
    <trkpt lat="44.816575" lon="20.460610"><time>2026-09-10T00:41:53Z</time></trkpt>
    <trkpt lat="44.816570" lon="20.460644"><time>2026-09-10T00:41:55Z</time></trkpt>
    <trkpt lat="44.816573" lon="20.460677"><time>2026-09-10T00:41:57Z</time></trkpt>
    <trkpt lat="44.816584" lon="20.460705"><time>2026-09-10T00:41:59Z</time></trkpt>
    <trkpt lat="44.816600" lon="20.460731"><time>2026-09-10T00:42:01Z</time></trkpt>
    <trkpt lat="44.816693" lon="20.460876"><time>2026-09-10T00:42:13Z</time></trkpt>
    <trkpt lat="44.816787" lon="20.461020"><time>2026-09-10T00:42:24Z</time></trkpt>
    <trkpt lat="44.816880" lon="20.461165"><time>2026-09-10T00:42:35Z</time></trkpt>
    <trkpt lat="44.816969" lon="20.461305"><time>2026-09-10T00:42:46Z</time></trkpt>
    <trkpt lat="44.817057" lon="20.461444"><time>2026-09-10T00:42:57Z</time></trkpt>
    <trkpt lat="44.817145" lon="20.461584"><time>2026-09-10T00:43:08Z</time></trkpt>
    <trkpt lat="44.817234" lon="20.461724"><time>2026-09-10T00:43:19Z</time></trkpt>
    <trkpt lat="44.817251" lon="20.461751"><time>2026-09-10T00:43:21Z</time></trkpt>
    <trkpt lat="44.817268" lon="20.461776"><time>2026-09-10T00:43:23Z</time></trkpt>
    <trkpt lat="44.817279" lon="20.461794"><time>2026-09-10T00:43:25Z</time></trkpt>
    <trkpt lat="44.817296" lon="20.461820"><time>2026-09-10T00:43:27Z</time></trkpt>
    <trkpt lat="44.817322" lon="20.461860"><time>2026-09-10T00:43:30Z</time></trkpt>
    <trkpt lat="44.817336" lon="20.461884"><time>2026-09-10T00:43:32Z</time></trkpt>
    <trkpt lat="44.817324" lon="20.461920"><time>2026-09-10T00:43:34Z</time></trkpt>
    <trkpt lat="44.817417" lon="20.462052"><time>2026-09-10T00:43:45Z</time></trkpt>
    <trkpt lat="44.817510" lon="20.462185"><time>2026-09-10T00:43:56Z</time></trkpt>
    <trkpt lat="44.817586" lon="20.462296"><time>2026-09-10T00:44:05Z</time></trkpt>
    <trkpt lat="44.817662" lon="20.462406"><time>2026-09-10T00:44:14Z</time></trkpt>
    <trkpt lat="44.817680" lon="20.462432"><time>2026-09-10T00:44:16Z</time></trkpt>
    <trkpt lat="44.817709" lon="20.462474"><time>2026-09-10T00:44:19Z</time></trkpt>
    <trkpt lat="44.817661" lon="20.462541"><time>2026-09-10T00:44:25Z</time></trkpt>
    <trkpt lat="44.817762" lon="20.462703"><time>2026-09-10T00:44:37Z</time></trkpt>
    <trkpt lat="44.817862" lon="20.462865"><time>2026-09-10T00:44:50Z</time></trkpt>
    <trkpt lat="44.817935" lon="20.462984"><time>2026-09-10T00:44:59Z</time></trkpt>
    <trkpt lat="44.818008" lon="20.463104"><time>2026-09-10T00:45:08Z</time></trkpt>
    <trkpt lat="44.818081" lon="20.463223"><time>2026-09-10T00:45:17Z</time></trkpt>
  </trkseg>
 </trk>
</gpx>
